BEESAT-4                
1 41619U 16040W   23017.07608471  .00047947  00000+0  12130-2 0  9997
2 41619  97.1881  67.6408 0008856  71.7365 288.4844 15.39578048353485
CAS-2T & KS-1Q          
1 41847U 16066G   23017.46566402  .00002006  00000+0  31080-3 0  9991
2 41847  98.5253  86.6633 0361060 289.4182  66.8321 14.39037801325125
NAYIF-1 (EO-88)         
1 42017U 17008BX  23017.45771112  .00056866  00000+0  11954-2 0  9993
2 42017  97.2418  86.3786 0003251 181.1682 178.9561 15.45131541329981
ZHUHAI-1 02 (CAS-4B)    
1 42759U 17034B   23016.98935274  .00009871  00000+0  54463-3 0  9990
2 42759  43.0158 234.1400 0010474 210.8445 296.8787 15.14032711308692
ZHUHAI-1 01 (CAS-4A)    
1 42761U 17034D   23017.07623716  .00010441  00000+0  57371-3 0  9995
2 42761  43.0150 232.2875 0010731 214.5117 280.8261 15.14132248308714
MAX VALIER SAT          
1 42778U 17036P   23016.88506415  .00027397  00000+0  89412-3 0  9998
2 42778  97.1803  55.8825 0007961 289.6345  70.4038 15.31714398309513
RADFXSAT (FOX-1B)       
1 43017U 17073E   23017.43779931  .00009083  00000+0  66307-3 0  9993
2 43017  97.6516 267.8069 0241132 205.6767 153.2315 14.83439735278818
FOX-1D (AO-92)          
1 43137U 18004AC  23016.72487628  .00031275  00000+0  91686-3 0  9997
2 43137  97.3479  95.4120 0006484 334.5191  25.5732 15.35115497278998
DIWATA-2B               
1 43678U 18084H   23017.13333276  .00002174  00000+0  21661-3 0  9992
2 43678  97.9964 158.3678 0008688 305.7208  54.3265 14.92658423229728
ES'HAIL 2               
1 43700U 18090A   23017.29774720  .00000164  00000+0  00000+0 0  9992
2 43700   0.0183  55.4966 0001893 293.4271 260.4997  1.00270364 15413
FOX-1CLIFF (AO-95)      
1 43770U 18099N   23017.15252901  .00007603  00000+0  65127-3 0  9995
2 43770  97.5962  82.8024 0012563 280.9749  79.0060 14.97774001224988
ITASAT 1                
1 43786U 18099AE  23016.80151914  .00008274  00000+0  70884-3 0  9996
2 43786  97.5999  83.4769 0012488 272.8855  87.0938 14.97738979224978
JY1SAT (JO-97)          
1 43803U 18099AX  23016.73104205  .00010294  00000+0  86252-3 0  9990
2 43803  97.5958  83.2593 0012055 270.8601  89.1240 14.98542459224991
UWE-4                   
1 43880U 18111E   23016.70412851  .00010147  00000+0  82364-3 0  9993
2 43880  97.6610 284.3106 0011872 337.3647  22.7052 14.99775712221645
NEXUS (FO-99)           
1 43937U 19003F   23017.05988519  .00040216  00000+0  10738-2 0  9990
2 43937  97.1094  47.6789 0019196 105.1184 255.2187 15.37809194222716
PSAT2 (NO-104)          
1 44354U 19036R   23017.51417889  .00330136  29761-4  87747-3 0  9996
2 44354  28.5163  98.4082 0090445 282.7511  76.3005 15.86448228198047
JAISAT-1                
1 44419U 19038F   23017.36878504  .00021313  00000+0  93089-3 0  9998
2 44419  97.6604 355.1401 0019604 108.9494 251.3868 15.21964224195532
DUCHIFAT-3              
1 44854U 19089C   23016.98745451  .00013541  00000+0  98834-3 0  9995
2 44854  36.9652 272.8556 0006774 175.3362 201.2168 15.03089608170057
CAS-6 (TIANQIN 1)       
1 44881U 19093C   23017.22438904  .00001614  00000+0  20953-3 0  9995
2 44881  97.8762  98.2061 0014208 205.3505 154.7043 14.82047203166432
RS-44 & BREEZE-KM R/B   
1 44909U 19096E   23016.70628340  .00000002  00000+0 -37756-4 0  9997
2 44909  82.5205  88.6071 0217602 180.8670 179.2086 12.79717689142780
ORBITAL FACTORY 2 (OF-2)
1 45113U 19071C   23017.17465975  .00155986  00000+0  14593-2 0  9996
2 45113  51.6322  76.1124 0005520 278.9159  81.1211 15.66217018166586
HUSKYSAT-1 (HO-107)     
1 45119U 19071J   23017.45981087  .00101812  00000+0  11553-2 0  9992
2 45119  51.6334  77.9850 0005662 262.9993  97.0357 15.61529314166572
BY70-2                  
1 45857U 20042B   23017.22369646  .00027204  00000+0  32962-2 0  9996
2 45857  97.9397  97.3148 0010542 139.7300 220.4747 14.83535641137100
SALSAT                  
1 46495U 20068K   23016.78190922  .00007967  00000+0  55272-3 0  9996
2 46495  97.7540 323.5638 0014315 275.1847  84.7746 15.05785138126277
BY70-3                  
1 46839U 20079N   23017.15450801  .00128806  00000+0  16691-2 0  9994
2 46839  97.1731  92.9873 0003628 277.3512 168.0808 15.58431369123309
RADFXSAT-2 (AO-109)     
1 47311U 21002C   23017.15763923  .00027548  00000+0  92157-3 0  9992
2 47311  60.6838 275.3441 0038272  99.9568 260.5845 15.30187823111116
UVSQ-SAT                
1 47438U 21006AB  23017.12394965  .00016611  00000+0  79585-3 0  9998
2 47438  97.4101  76.7974 0009740 250.4706 109.5477 15.18961573109676
DIY-1 (ARDUIQUBE)       
1 47963U 21022AH  23017.46049003  .00058608  00000+0  23945-2 0  9996
2 47963  97.5165 282.3522 0016285 107.5618 252.7400 15.24039434 99405
XW-3 (CAS-9)            
1 50466U 21131B   23017.26118582  .00000902  00000+0  30912-3 0  9993
2 50466  98.5647  99.2459 0004053 219.8483 140.2407 14.38629769 55651
TEVEL-3                 
1 50988U 22002E   23017.14843028  .00020959  00000+0  10221-2 0  9991
2 50988  97.4564  85.7279 0009679  48.7858 341.2384 15.18296771 55794
TEVEL-8                 
1 50989U 22002F   23017.44192713  .00023273  00000+0  11350-2 0  9999
2 50989  97.4576  86.0591 0009746  46.3826  77.3758 15.18270831 55839
TEVEL-5                 
1 50998U 22002Q   23017.16209829  .00021589  00000+0  10347-2 0  9998
2 50998  97.4552  85.9751 0011259  41.0880 346.9337 15.18881005 55810
TEVEL-6                 
1 50999U 22002R   23017.16103822  .00021786  00000+0  10438-2 0  9995
2 50999  97.4546  85.9720 0011310  40.0600 348.2188 15.18889571 55812
TEVEL-1                 
1 51013U 22002AF  23017.29331300  .00023590  00000+0  11498-2 0  9993
2 51013  97.4552  85.8315 0009774  46.4604  21.8063 15.18290463 55813
TEVEL-7                 
1 51062U 22002CG  23017.30143742  .00021422  00000+0  10459-2 0  9998
2 51062  97.4562  85.8995 0009579  44.0016  21.2095 15.18251337 55812
TEVEL-4                 
1 51063U 22002CH  23017.16497675  .00020940  00000+0  10235-2 0  9996
2 51063  97.4570  85.7551 0009329  46.7343 340.5029 15.18220059 55792
TEVEL-2                 
1 51069U 22002CP  23017.15027796  .00023015  00000+0  11212-2 0  9996
2 51069  97.4549  85.7039 0009760  43.8748 346.1682 15.18312137 55797
GREENCUBE               
1 53106U 22080B   22354.08419093 -.00000003  00000+0  00000+0 0  9999
2 53106  70.1702  21.9397 0008914 226.9685 182.2049  6.42557326 10248
YUZGU 9 (RS3S)          
1 53308U 98067TT  23016.81700876  .00689121  20186-3  20658-2 0  9998
2 53308  51.6292 342.0686 0005709 105.9612 254.2023 15.91704519 28077
YUZGU 7 (RS1S)          
1 53309U 98067TU  23017.07343277  .00811153  29593-3  20205-2 0  9997
2 53309  51.6271 340.0082 0006073 110.3419 249.8242 15.95211800 28076
YUZGU 11 (RS5S)         
1 53310U 98067TV  23016.93589946  .00719402  22300-3  20526-2 0  9997
2 53310  51.6303 341.3633 0005367 106.2023 253.9575 15.92657709 28074
YUZGU 12 (RS6S)         
1 53311U 98067TW  23017.07252664  .01022895  51893-3  20310-2 0  9992
2 53311  51.6246 339.2343 0006310 120.3844 239.7790 15.99345863 28132
TSIOLKOVSKY-RYAZAN 1 (*)
1 53312U 98067TX  23017.15399958  .00707857  21953-3  18821-2 0  9995
2 53312  51.6277 339.8050 0006126 112.4164 247.7493 15.93985497 28079
TSIOLKOVSKY-RYAZAN 2 (*)
1 53313U 98067TY  23017.08247302  .00732122  23586-3  19255-2 0  9992
2 53313  51.6290 340.0852 0006225 110.0339 250.1339 15.94190323 28116
YUZGU 10 (RS4S)         
1 53321U 98067TZ  23017.17072043  .00736705  23565-3  20474-2 0  9992
2 53321  51.6308 339.9284 0005777 110.5235 249.6393 15.93155166 28121
RS29S (SXC3-2110 CYCLO*)
1 53373U 22096D   23017.53937590  .00031558  00000+0  11201-2 0  9992
2 53373  97.4273 283.1202 0002014  79.5553  44.5423 15.28988408 24599
RS32S (SXC3-212 MONITO*)
1 53374U 22096E   23017.53248933  .00028773  00000+0  10252-2 0  9999
2 53374  97.4265 283.1201 0002074  41.0483  86.0977 15.28881421 24594
RS34S (SXC3-218 KUZBAS*)
1 53375U 22096F   23017.09725645  .00023862  00000+0  86743-3 0  9994
2 53375  97.4278 282.6346 0001748  41.2838  68.0098 15.28262747 24527
RS23S (SXC3-21 UTMN)    
1 53376U 22096G   23017.28934226  .00025229  00000+0  91238-3 0  9997
2 53376  97.4273 282.8410 0001547  62.8484  57.1116 15.28423059 24558
RS28S (SXC3-214 MIET-A*)
1 53377U 22096H   23017.49805809  .00024605  00000+0  89345-3 0  9998
2 53377  97.4279 283.0450 0001613  66.3531 108.3116 15.28293664 24587
RS26S (KAI-1)           
1 53378U 22096J   23017.56647286  .00021226  00000+0  77996-3 0  9995
2 53378  97.4276 283.0822 0001435  48.3495  72.0783 15.27932700 24597
RS19S (SXC3-219 ISOI)   
1 53381U 22096M   23017.36311297  .00024372  00000+0  87087-3 0  9994
2 53381  97.4273 283.0252 0002119 218.5043 214.1125 15.28822422 24572
RS21S (CUBESX-HSE-2)    
1 53383U 22096P   23017.43138001  .00025079  00000+0  89348-3 0  9991
2 53383  97.4273 283.1095 0002070 228.8392 247.7616 15.28915117 24589
RS30S (SXC3-217 SIREN)  
1 53384U 22096Q   23017.24524994  .00022420  00000+0  80680-3 0  9998
2 53384  97.4270 282.8985 0002373 224.3750 254.9553 15.28607696 24553
RS20S (GEOSCAN-EDELVEIS)
1 53385U 22096R   23017.43977921  .00032172  00000+0  11062-2 0  9994
2 53385  97.4272 283.2450 0002292 228.1961 249.8602 15.30021976 24624
RS33S (SXC3-215 VIZARD) 
1 53386U 22096S   23017.57439994  .00039390  00000+0  13068-2 0  9990
2 53386  97.4268 283.5226 0003172 219.9040 260.8689 15.31133137 24642
CAS-5A (FO-118)         
1 54684U 22167C   23017.14055507  .00015619  00000+0  97553-3 0  9998
2 54684  97.5408 156.4678 0015332 130.7299  43.5124 15.09460468  5854
CAS-10                  
1 54816U 21035C   23016.95099094  .00221617  00000+0  19129-2 0  9994
2 54816  41.4761 356.8892 0003607  87.9564 272.1709 15.67727253  4552
